     2.10           G: GLONASS NAV DATA                     RINEX VERSION / TYPE
teqc  2015Jun23                         20220102 01:25:44UTCPGM / RUN BY / DATE
Linux 2.4.21-27.ELsmp|Opteron|gcc -static|Linux x86_64|=+   COMMENT
  2021    12     9   -4.656612873077D-10                    CORR TO SYSTEM TIME
                                                            END OF HEADER
23 21 12 10  2 45  0.0-2.279412001371D-05-9.094947017729D-13 9.000000000000D+03
   -6.184907714844D+03-9.777545928955D-01-9.313225746155D-10 0.000000000000D+00
    1.142755175781D+04-2.848435401917D+00-0.000000000000D+00 3.000000000000D+00
   -2.195070947266D+04-1.207569122314D+00 1.862645149231D-09 0.000000000000D+00
12 21 12 10  2 45  0.0 2.852445468307D-04 2.728484105319D-12 9.000000000000D+03
   -1.766949365234D+04 7.205743789673D-01 0.000000000000D+00 0.000000000000D+00
    1.694133007812D+04-6.754074096680D-01-0.000000000000D+00-1.000000000000D+00
    7.153823242188D+03 3.392893791199D+00-1.862645149231D-09 0.000000000000D+00
13 21 12 10  2 45  0.0-6.462726742029D-05-0.000000000000D+00 9.000000000000D+03
   -1.042714648438D+04-6.983318328857D-01 0.000000000000D+00 0.000000000000D+00
    2.116232617188D+04 1.136960029602D+00-0.000000000000D+00-2.000000000000D+00
   -9.709653320312D+03 3.233625411987D+00 0.000000000000D+00 0.000000000000D+00
17 21 12 10  2 45  0.0 4.822099581361D-04 2.728484105319D-12 9.000000000000D+03
    1.095003173828D+04 4.259986877441D-01 1.862645149231D-09 0.000000000000D+00
    2.257335498047D+04 4.945058822632D-01 9.313225746155D-10 4.000000000000D+00
    4.497554687500D+03-3.534173011780D+00 0.000000000000D+00 0.000000000000D+00
24 21 12 10  2 45  0.0 7.052626460791D-05 1.818989403546D-12 9.000000000000D+03
    1.903687011719D+03-4.639291763306D-01 0.000000000000D+00 0.000000000000D+00
    2.205278613281D+04-1.679845809937D+00 0.000000000000D+00 2.000000000000D+00
   -1.263889355469D+04-2.996973037720D+00 9.313225746155D-10 0.000000000000D+00
14 21 12 10  2 45  0.0 7.189810276031D-05 0.000000000000D+00 9.300000000000D+03
    3.515528808594D+03-1.812233924866D+00-0.000000000000D+00 0.000000000000D+00
    1.264951074219D+04 2.384618759155D+00 0.000000000000D+00-7.000000000000D+00
   -2.186118212891D+04 1.086841583252D+00 1.862645149231D-09 0.000000000000D+00
13 21 12 10  3 15  0.0-6.462726742029D-05-0.000000000000D+00 1.080000000000D+04
   -1.113600488281D+04-1.132345199585D-01 0.000000000000D+00 0.000000000000D+00
    2.266607568359D+04 4.996547698975D-01-0.000000000000D+00-2.000000000000D+00
   -3.589006835938D+03 3.522959709167D+00-0.000000000000D+00 0.000000000000D+00
12 21 12 10  3 15  0.0 2.852501347661D-04 2.728484105319D-12 1.080000000000D+04
   -1.607204638672D+04 1.011251449585D+00 0.000000000000D+00 0.000000000000D+00
    1.502972265625D+04-1.450504302979D+00-9.313225746155D-10-1.000000000000D+00
    1.290541162109D+04 2.956315994263D+00-1.862645149231D-09 0.000000000000D+00
14 21 12 10  3 15  0.0 7.189810276031D-05 0.000000000000D+00 1.080000000000D+04
    7.392324218750D+02-1.261009216309D+00-0.000000000000D+00 0.000000000000D+00
    1.690123437500D+04 2.291431427002D+00 0.000000000000D+00-7.000000000000D+00
   -1.908449707031D+04 1.978284835815D+00 1.862645149231D-09 0.000000000000D+00
17 21 12 10  3 15  0.0 4.822155460715D-04 2.728484105319D-12 1.080000000000D+04
    1.142673144531D+04 6.415081024170D-02 1.862645149231D-09 0.000000000000D+00
    2.269553417969D+04-3.436384201050D-01 9.313225746155D-10 4.000000000000D+00
   -1.955866210938D+03-3.589612960815D+00 9.313225746155D-10 0.000000000000D+00
24 21 12 10  3 15  0.0 7.052905857563D-05 1.818989403546D-12 1.080000000000D+04
    5.806059570312D+02-1.020420074463D+00-0.000000000000D+00 0.000000000000D+00
    1.854398437500D+04-2.174642562866D+00 0.000000000000D+00 2.000000000000D+00
   -1.747380615234D+04-2.340160369873D+00 9.313225746155D-10 0.000000000000D+00
18 21 12 10  3 15  0.0 9.995605796576D-05 9.094947017729D-13 1.107000000000D+04
    1.522149511719D+04 1.097211837769D+00 2.793967723846D-09 0.000000000000D+00
    1.473292919922D+04 1.624385833740D+00 9.313225746155D-10-3.000000000000D+00
    1.426650585938D+04-2.847863197327D+00-0.000000000000D+00 0.000000000000D+00
 2 21 12 10  3 15  0.0 5.027912557125D-04 9.094947017729D-13 1.209000000000D+04
   -7.923816406250D+03-3.008421897888D+00 1.862645149231D-09 0.000000000000D+00
    1.019274023438D+04-2.239513397217D-02-0.000000000000D+00-4.000000000000D+00
    2.202163183594D+04-1.079972267151D+00-1.862645149231D-09 0.000000000000D+00
13 21 12 10  3 45  0.0-6.462819874287D-05-0.000000000000D+00 1.260000000000D+04
   -1.094496435547D+04 2.894191741943D-01 0.000000000000D+00 0.000000000000D+00
    2.286378515625D+04-2.988424301147D-01-0.000000000000D+00-2.000000000000D+00
    2.809152832031D+03 3.539923667908D+00-9.313225746155D-10 0.000000000000D+00
12 21 12 10  3 45  0.0 2.852557227015D-04 3.637978807092D-12 1.260000000000D+04
   -1.418620068359D+04 1.041444778442D+00 0.000000000000D+00 0.000000000000D+00
    1.174727392578D+04-2.179460525513D+00-9.313225746155D-10-1.000000000000D+00
    1.765938183594D+04 2.291695594788D+00-2.793967723846D-09 0.000000000000D+00
14 21 12 10  3 45  0.0 7.189903408289D-05 0.000000000000D+00 1.260000000000D+04
   -1.015681640625D+03-6.956796646118D-01-0.000000000000D+00 0.000000000000D+00
    2.072600048828D+04 1.912020683289D+00 0.000000000000D+00-7.000000000000D+00
   -1.483152978516D+04 2.716507911682D+00 9.313225746155D-10 0.000000000000D+00
17 21 12 10  3 45  0.0 4.822211340070D-04 2.728484105319D-12 1.260000000000D+04
    1.105631201172D+04-5.041522979736D-01 9.313225746155D-10 0.000000000000D+00
    2.142279931641D+04-1.038421630859D+00 0.000000000000D+00 4.000000000000D+00
   -8.257596191406D+03-3.366696357727D+00 9.313225746155D-10 0.000000000000D+00
18 21 12 10  3 45  0.0 9.995885193348D-05 9.094947017729D-13 1.260000000000D+04
    1.703959326172D+04 8.776025772095D-01 2.793967723846D-09 0.000000000000D+00
    1.693958789062D+04 8.247261047363D-01 0.000000000000D+00-3.000000000000D+00
    8.656815917969D+03-3.344816207886D+00 0.000000000000D+00 0.000000000000D+00
24 21 12 10  3 45  0.0 7.053185254335D-05 1.818989403546D-12 1.260000000000D+04
   -1.788748046875D+03-1.608120918274D+00-9.313225746155D-10 0.000000000000D+00
    1.439492187500D+04-2.386235237122D+00 0.000000000000D+00 2.000000000000D+00
   -2.095430468750D+04-1.501881599426D+00 1.862645149231D-09 0.000000000000D+00
 2 21 12 10  3 45  0.0 5.027940496802D-04 9.094947017729D-13 1.269000000000D+04
   -1.301820898438D+04-2.605891227722D+00 0.000000000000D+00 0.000000000000D+00
    1.052747851562D+04 3.746633529663D-01-9.313225746155D-10-4.000000000000D+00
    1.925302783203D+04-1.976549148560D+00-2.793967723846D-09 0.000000000000D+00
 2 21 12 10  4 15  0.0 5.027959123254D-04 9.094947017729D-13 1.440000000000D+04
   -1.715896240234D+04-1.961157798767D+00-0.000000000000D+00 0.000000000000D+00
    1.144393115234D+04 6.100349426270D-01-9.313225746155D-10-4.000000000000D+00
    1.499710595703D+04-2.721755027771D+00-2.793967723846D-09 0.000000000000D+00
12 21 12 10  4 15  0.0 2.852613106370D-04 3.637978807092D-12 1.440000000000D+04
   -1.246497998047D+04 8.361167907715D-01 0.000000000000D+00 0.000000000000D+00
    7.277403320312D+03-2.752915382385D+00-9.313225746155D-10-1.000000000000D+00
    2.104943115234D+04 1.450719833374D+00-2.793967723846D-09 0.000000000000D+00
13 21 12 10  4 15  0.0-6.462913006544D-05-0.000000000000D+00 1.440000000000D+04
   -1.023644677734D+04 4.562950134277D-01 0.000000000000D+00 0.000000000000D+00
    2.155550976562D+04-1.154821395874D+00-9.313225746155D-10-2.000000000000D+00
    8.989924316406D+03 3.282949447632D+00-1.862645149231D-09 0.000000000000D+00
14 21 12 10  4 15  0.0 7.189996540546D-05 0.000000000000D+00 1.440000000000D+04
   -1.820452148438D+03-2.217426300049D-01 0.000000000000D+00 0.000000000000D+00
    2.363193603516D+04 1.279702186584D+00-0.000000000000D+00-7.000000000000D+00
   -9.431544433594D+03 3.244486808777D+00 0.000000000000D+00 0.000000000000D+00
17 21 12 10  4 15  0.0 4.822267219424D-04 2.728484105319D-12 1.440000000000D+04
    9.537755859375D+03-1.194987297058D+00 0.000000000000D+00 0.000000000000D+00
    1.909563427734D+04-1.503853797913D+00 0.000000000000D+00 4.000000000000D+00
   -1.391888232422D+04-2.882652282715D+00 9.313225746155D-10 0.000000000000D+00
18 21 12 10  4 15  0.0 9.996164590120D-05 9.094947017729D-13 1.440000000000D+04
    1.822467236328D+04 3.992118835449D-01 1.862645149231D-09 0.000000000000D+00
    1.772743798828D+04 6.719398498535D-02 0.000000000000D+00-3.000000000000D+00
    2.380133300781D+03-3.584156036377D+00 0.000000000000D+00 0.000000000000D+00
24 21 12 10  4 15  0.0 7.053371518850D-05 1.818989403546D-12 1.440000000000D+04
   -5.160337402344D+03-2.115651130676D+00-1.862645149231D-09 0.000000000000D+00
    1.012832128906D+04-2.308082580566D+00 0.000000000000D+00 2.000000000000D+00
   -2.281058789062D+04-5.472526550293D-01 9.313225746155D-10 0.000000000000D+00
15 21 12 10  4 15  0.0 9.969994425774D-05-9.094947017729D-13 1.530000000000D+04
    7.362126464844D+03-7.450342178345D-01-0.000000000000D+00 0.000000000000D+00
    1.168104345703D+04 2.843028068542D+00 0.000000000000D+00 0.000000000000D+00
   -2.142843408203D+04 1.292999267578D+00 1.862645149231D-09 0.000000000000D+00
 3 21 12 10  4 15  0.0 4.790164530277D-05 9.094947017729D-13 1.581000000000D+04
    4.698564453125D+02-3.039860725403D+00 1.862645149231D-09 0.000000000000D+00
    1.113254443359D+04 7.731065750122D-01-0.000000000000D+00 5.000000000000D+00
    2.297874267578D+04-3.183956146240D-01-1.862645149231D-09 0.000000000000D+00
 2 21 12 10  4 45  0.0 5.027977749705D-04 9.094947017729D-13 1.620000000000D+04
   -1.998658886719D+04-1.164190292358D+00-9.313225746155D-10 0.000000000000D+00
    1.258588281250D+04 6.172485351562D-01-9.313225746155D-10-4.000000000000D+00
    9.580776367188D+03-3.257389068604D+00-2.793967723846D-09 0.000000000000D+00
